{"type": "FeatureCollection", "features": [{"type": "Feature", "properties": {"mesorregiao": "Centro Goiano"}, "geometry": {"type": "Polygon", "coordinates": [[[-51.44002, -16.34445], [-51.40096, -16.26543], [-51.36766, -16.28462], [-51.11723, -16.30611], [-51.13472, -16.22496], [-51.1709, -16.18974], [-51.17055, -16.12517], [-51.19258, -16.10663], [-51.21747, -16.02684], [-51.20674, -16.00358], [-51.23566, -15.99439], [-51.23815, -15.96389], [-51.25744, -15.96938], [-51.22153, -15.94126], [-51.19628, -15.96547], [-51.15146, -15.95194], [-51.08133, -15.97937], [-51.06363, -15.96904], [-50.99428, -16.027], [-50.9403, -16.02091], [-50.91416, -16.05372], [-50.88555, -16.04387], [-50.87207, -16.01095], [-50.81412, -16.02341], [-50.78268, -15.9933], [-50.79415, -15.94352], [-50.74639, -15.9226], [-50.72349, -15.87711], [-50.68413, -15.90988], [-50.68305, -15.95212], [-50.61821, -15.96517], [-50.58143, -16.04105], [-50.50624, -16.00831], [-50.51401, -16.03275], [-50.48962, -16.04071], [-50.47395, -16.07387], [-50.47964, -16.11762], [-50.4655, -16.12059], [-50.38139, -16.07838], [-50.25741, -16.09424], [-50.10778, -16.03519], [-50.08404, -16.04457], [-50.00533, -16.01259], [-49.9427, -15.96552], [-49.86507, -15.98616], [-49.83704, -15.942], [-49.8404, -15.90645], [-49.81625, -15.9067], [-49.79686, -15.8854], [-49.81004, -15.82418], [-49.8847, -15.7535], [-49.9092, -15.77099], [-49.9387, -15.74917], [-50.01934, -15.78118], [-50.04928, -15.77295], [-50.06865, -15.78845], [-50.08134, -15.77707], [-50.06121, -15.72585], [-50.077, -15.69038], [-50.12511, -15.65401], [-50.13147, -15.58003], [-50.15667, -15.5604], [-50.15307, -15.52567], [-50.1657, -15.52459], [-50.15339, -15.48814], [-50.16868, -15.45283], [-50.12375, -15.36651], [-50.13184, -15.33803], [-50.10235, -15.31533], [-50.10474, -15.28339], [-50.03915, -15.19773], [-50.05559, -15.18302], [-50.03578, -15.14562], [-50.06106, -15.1067], [-50.04565, -15.05925], [-49.98779, -15.01481], [-49.96925, -15.01999], [-49.96595, -14.99999], [-49.92478, -14.97052], [-49.90959, -14.96518], [-49.90552, -14.98071], [-49.87975, -14.98746], [-49.83867, -14.9641], [-49.85065, -14.90086], [-49.81554, -14.79203], [-49.82479, -14.78161], [-49.78113, -14.76154], [-49.76433, -14.71981], [-49.73239, -14.69401], [-49.74414, -14.65873], [-49.77717, -14.65464], [-49.78499, -14.61972], [-49.81245, -14.62028], [-49.82462, -14.59554], [-49.80722, -14.57837], [-49.82526, -14.56364], [-49.81603, -14.54443], [-49.77845, -14.53952], [-49.77109, -14.50683], [-49.75507, -14.53153], [-49.75345, -14.48306], [-49.77142, -14.47783], [-49.72584, -14.48459], [-49.71406, -14.46423], [-49.66053, -14.48098], [-49.66207, -14.53147], [-49.63375, -14.57025], [-49.64406, -14.62836], [-49.62695, -14.63242], [-49.61562, -14.68137], [-49.56687, -14.64494], [-49.57539, -14.62695], [-49.5356, -14.54656], [-49.55454, -14.50269], [-49.54162, -14.4639], [-49.52284, -14.47522], [-49.4737, -14.46235], [-49.49705, -14.2554], [-49.56164, -14.23284], [-49.56039, -14.20033], [-49.48263, -14.23795], [-49.48173, -14.27381], [-49.45999, -14.29206], [-49.42583, -14.26158], [-49.42043, -14.33018], [-49.40008, -14.37384], [-49.41983, -14.38819], [-49.39726, -14.40234], [-49.40927, -14.42988], [-49.35547, -14.50469], [-49.38838, -14.50756], [-49.39231, -14.53424], [-49.44681, -14.55769], [-49.4543, -14.58542], [-49.42876, -14.60221], [-49.43486, -14.61972], [-49.3915, -14.63773], [-49.35608, -14.60863], [-49.32317, -14.63792], [-49.31734, -14.6733], [-49.2788, -14.68337], [-49.28147, -14.70229], [-49.20047, -14.74628], [-49.19278, -14.7685], [-49.15233, -14.76869], [-49.14347, -14.73375], [-49.11953, -14.74716], [-49.08672, -14.73083], [-49.06954, -14.74356], [-49.04197, -14.70868], [-49.00033, -14.71668], [-49.02105, -14.68806], [-49.02869, -14.63499], [-49.05408, -14.61711], [-49.0428, -14.60606], [-49.01604, -14.62096], [-49.04478, -14.58997], [-49.03913, -14.57715], [-49.01142, -14.57578], [-49.00181, -14.59847], [-48.99171, -14.58647], [-48.97489, -14.62302], [-48.99005, -14.62243], [-48.9873, -14.64396], [-48.96684, -14.64548], [-48.96582, -14.66504], [-48.95042, -14.6612], [-48.95032, -14.68097], [-48.90636, -14.67097], [-48.87596, -14.6945], [-48.84288, -14.68939], [-48.81519, -14.66364], [-48.78169, -14.66588], [-48.77188, -14.64276], [-48.72739, -14.6727], [-48.73162, -14.70917], [-48.71278, -14.72656], [-48.71209, -14.76449], [-48.72808, -14.77934], [-48.71344, -14.80191], [-48.74037, -14.81181], [-48.7455, -14.84316], [-48.7616, -14.84732], [-48.75919, -14.88976], [-48.79324, -14.91872], [-48.80364, -14.99619], [-48.84619, -15.04544], [-48.85728, -15.09538], [-48.90824, -15.1639], [-48.92136, -15.24088], [-48.93813, -15.25882], [-49.02738, -15.27724], [-49.06245, -15.30766], [-49.08545, -15.37345], [-49.06731, -15.44712], [-49.09204, -15.46916], [-49.08264, -15.51287], [-49.1177, -15.52568], [-49.08903, -15.53864], [-49.18672, -15.60247], [-49.17008, -15.62738], [-49.1287, -15.62428], [-49.21749, -15.85986], [-49.19876, -15.92797], [-49.1746, -15.94009], [-49.18066, -15.95893], [-49.13235, -15.99841], [-49.15511, -16.02646], [-49.13163, -16.0525], [-49.18213, -16.12665], [-49.16516, -16.13745], [-49.14896, -16.12452], [-49.1061, -16.14613], [-49.05844, -16.12865], [-49.01978, -16.14248], [-48.98106, -16.12535], [-48.94205, -16.13125], [-48.92264, -16.16357], [-48.96092, -16.22727], [-48.9473, -16.24352], [-48.9222, -16.21904], [-48.89707, -16.23718], [-48.84844, -16.22694], [-48.82905, -16.23348], [-48.82592, -16.25587], [-48.77341, -16.27756], [-48.75086, -16.33216], [-48.75572, -16.38229], [-48.8542, -16.40387], [-48.86889, -16.39501], [-48.90058, -16.41779], [-48.8632, -16.45156], [-48.86479, -16.48644], [-48.79558, -16.55844], [-48.78569, -16.58773], [-48.72713, -16.60448], [-48.71883, -16.67658], [-48.72347, -16.6865], [-48.7964, -16.62996], [-48.8313, -16.65767], [-48.87284, -16.65755], [-48.91736, -16.72432], [-48.88056, -16.74149], [-48.86825, -16.76663], [-48.85606, -16.75143], [-48.83451, -16.7633], [-48.83255, -16.79247], [-48.79103, -16.80702], [-48.80569, -16.91235], [-48.76942, -16.93706], [-48.77153, -17.01086], [-48.71522, -17.03961], [-48.6801, -17.11992], [-48.64025, -17.13026], [-48.64478, -17.18387], [-48.72332, -17.15855], [-48.79271, -17.19273], [-48.84402, -17.06445], [-48.88088, -17.01642], [-48.92532, -17.02331], [-48.93922, -17.09043], [-48.98192, -17.09275], [-49.04116, -17.05427], [-49.08331, -17.06125], [-49.12049, -17.09777], [-49.11236, -17.13617], [-49.17405, -17.12078], [-49.19192, -17.13729], [-49.2317, -17.08256], [-49.39011, -17.15767], [-49.44816, -17.14234], [-49.46308, -17.16584], [-49.48915, -17.15957], [-49.48004, -17.13235], [-49.49356, -17.12038], [-49.47437, -17.09967], [-49.49154, -17.06752], [-49.47652, -16.9817], [-49.52024, -17.00048], [-49.54345, -17.04466], [-49.56853, -17.03547], [-49.60626, -17.06388], [-49.63423, -17.01052], [-49.5955, -16.9525], [-49.74862, -16.94658], [-49.72653, -16.93265], [-49.73681, -16.91086], [-49.72006, -16.88444], [-49.66529, -16.87516], [-49.61076, -16.84172], [-49.59682, -16.81252], [-49.63745, -16.80023], [-49.61775, -16.77913], [-49.65351, -16.76048], [-49.68875, -16.67057], [-49.72802, -16.66909], [-49.71891, -16.64535], [-49.7308, -16.63814], [-49.74547, -16.65271], [-49.77693, -16.63848], [-49.88656, -16.64015], [-49.91056, -16.61458], [-49.92492, -16.62951], [-49.97263, -16.59023], [-50.0067, -16.62059], [-50.15899, -16.68624], [-50.19419, -16.68586], [-50.25327, -16.73321], [-50.27318, -16.79826], [-50.28742, -16.79725], [-50.28595, -16.76692], [-50.36008, -16.74139], [-50.36075, -16.69983], [-50.37727, -16.71785], [-50.40604, -16.71913], [-50.44918, -16.79716], [-50.53631, -16.81389], [-50.57618, -16.84794], [-50.65138, -16.83977], [-50.70179, -16.81021], [-50.79962, -16.82348], [-50.79046, -16.79653], [-50.81837, -16.72184], [-50.81947, -16.67169], [-50.84927, -16.72695], [-50.92415, -16.78349], [-50.97109, -16.79352], [-51.00796, -16.84786], [-51.05662, -16.8604], [-51.05458, -16.95721], [-51.10405, -16.89464], [-51.14874, -16.89144], [-51.15243, -16.86789], [-51.1958, -16.83953], [-51.2056, -16.8106], [-51.22386, -16.8144], [-51.21984, -16.69769], [-51.26088, -16.64766], [-51.25662, -16.61684], [-51.30783, -16.56478], [-51.28772, -16.55454], [-51.30613, -16.5189], [-51.33838, -16.50851], [-51.34332, -16.47907], [-51.37868, -16.46523], [-51.37433, -16.4453], [-51.39707, -16.44584], [-51.41205, -16.37214], [-51.44002, -16.34445]], [[-49.36559, -16.89158], [-49.36479, -16.8922], [-49.36489, -16.8915], [-49.36559, -16.89158]], [[-49.55657, -15.63651], [-49.55731, -15.63572], [-49.55729, -15.63655], [-49.55657, -15.63651]]]}}, {"type": "Feature", "properties": {"mesorregiao": "Leste Goiano"}, "geometry": {"type": "Polygon", "coordinates": [[[-49.2175, -15.86002], [-49.12882, -15.62458], [-49.14953, -15.61593], [-49.17028, -15.62747], [-49.18848, -15.6064], [-49.0897, -15.53888], [-49.1198, -15.52515], [-49.08266, -15.51289], [-49.09205, -15.46902], [-49.06779, -15.44716], [-49.07132, -15.39639], [-49.08598, -15.38159], [-49.07913, -15.34287], [-49.0272, -15.27703], [-48.92624, -15.2498], [-48.90828, -15.16394], [-48.85727, -15.09516], [-48.84622, -15.04535], [-48.80374, -14.99639], [-48.80662, -14.95111], [-48.75929, -14.88961], [-48.76141, -14.86304], [-48.73669, -14.88272], [-48.749, -14.93907], [-48.68361, -14.95191], [-48.69646, -14.98138], [-48.66827, -14.98257], [-48.65002, -14.95875], [-48.6348, -14.99724], [-48.61833, -14.98689], [-48.62049, -15.00416], [-48.5989, -15.00604], [-48.65666, -15.04469], [-48.65403, -15.10037], [-48.63053, -15.11027], [-48.61417, -15.15466], [-48.54276, -15.17411], [-48.4997, -15.15223], [-48.48911, -15.11753], [-48.42441, -15.08649], [-48.40626, -15.10548], [-48.36511, -15.08981], [-48.32302, -15.11264], [-48.30446, -15.09682], [-48.23687, -15.12817], [-48.21605, -15.11331], [-48.18211, -15.14095], [-48.13161, -15.13615], [-48.11445, -15.15365], [-48.09141, -15.13548], [-48.09888, -15.11157], [-48.0582, -15.05226], [-48.05196, -14.96256], [-48.03568, -14.96084], [-48.04622, -14.92304], [-48.07877, -14.89807], [-48.06612, -14.86812], [-47.99024, -14.80262], [-47.90771, -14.79873], [-47.86499, -14.77246], [-47.81093, -14.69578], [-47.78629, -14.69019], [-47.77129, -14.641], [-47.71705, -14.65294], [-47.69228, -14.74105], [-47.6599, -14.70644], [-47.6314, -14.7441], [-47.64602, -14.83088], [-47.55571, -14.73009], [-47.53401, -14.7382], [-47.52455, -14.77521], [-47.47343, -14.80267], [-47.47747, -14.81729], [-47.42265, -14.82921], [-47.37344, -14.81514], [-47.35709, -14.77565], [-47.31301, -14.76546], [-47.3224, -14.7499], [-47.31631, -14.73847], [-47.3079, -14.74958], [-47.28253, -14.69433], [-47.23601, -14.68862], [-47.23128, -14.63073], [-47.21587, -14.62689], [-47.22054, -14.60398], [-47.20444, -14.60725], [-47.18531, -14.54396], [-47.15952, -14.55054], [-47.14542, -14.53816], [-47.1573, -14.46621], [-47.18379, -14.43871], [-47.19012, -14.33009], [-47.17165, -14.2675], [-47.13911, -14.25424], [-47.12928, -14.20061], [-47.08547, -14.17077], [-47.08429, -14.14237], [-47.03211, -14.08951], [-46.99643, -14.0815], [-46.93786, -14.1029], [-46.9237, -14.07777], [-46.88914, -14.07059], [-46.87559, -14.03338], [-46.84325, -14.04847], [-46.82703, -14.03032], [-46.85095, -13.98644], [-46.8372, -13.91163], [-46.8682, -13.88441], [-46.82686, -13.852], [-46.85181, -13.82882], [-46.81724, -13.796], [-46.83545, -13.75984], [-46.81081, -13.7253], [-46.78393, -13.71769], [-46.80945, -13.67677], [-46.79633, -13.65844], [-46.85433, -13.62254], [-46.84021, -13.59074], [-46.79258, -13.59113], [-46.7887, -13.55097], [-46.77245, -13.54002], [-46.78525, -13.51039], [-46.76565, -13.49663], [-46.76951, -13.44632], [-46.74551, -13.4233], [-46.74862, -13.40749], [-46.72864, -13.38467], [-46.38356, -13.3826], [-46.39497, -13.31028], [-46.37588, -13.21733], [-46.40957, -13.10844], [-46.44942, -13.05509], [-46.29592, -13.06394], [-46.32259, -13.09819], [-46.29164, -13.14359], [-46.30969, -13.15776], [-46.30081, -13.19361], [-46.3311, -13.24965], [-46.29859, -13.25368], [-46.31584, -13.30318], [-46.28867, -13.31462], [-46.27938, -13.34774], [-46.06388, -13.26129], [-46.04216, -13.27267], [-46.05187, -13.31242], [-46.09513, -13.33255], [-46.13403, -13.37523], [-46.21423, -13.40068], [-46.24332, -13.43031], [-46.20642, -13.46563], [-46.23019, -13.48127], [-46.21859, -13.50051], [-46.24131, -13.52553], [-46.23551, -13.56288], [-46.18433, -13.56757], [-46.16197, -13.59093], [-46.26099, -13.6871], [-46.23551, -13.70816], [-46.26685, -13.74027], [-46.23717, -13.74483], [-46.22442, -13.771], [-46.2824, -13.7953], [-46.26258, -13.80858], [-46.26971, -13.8287], [-46.23366, -13.84562], [-46.2681, -13.9438], [-46.21873, -13.97405], [-46.21001, -14.01285], [-46.24831, -14.05632], [-46.22686, -14.0733], [-46.26573, -14.09795], [-46.20219, -14.11963], [-46.18564, -14.15185], [-46.11814, -14.16037], [-46.11614, -14.18774], [-46.09618, -14.20546], [-46.06116, -14.19437], [-46.0609, -14.23265], [-46.02191, -14.26038], [-45.99605, -14.25722], [-45.99518, -14.27897], [-45.96117, -14.28846], [-45.94267, -14.34377], [-45.9073, -14.35323], [-45.93534, -14.41533], [-45.98081, -14.43327], [-46.00894, -14.4064], [-46.01755, -14.41894], [-46.00083, -14.43454], [-46.01637, -14.46934], [-45.99367, -14.49539], [-46.00409, -14.51601], [-45.97708, -14.53884], [-45.99659, -14.54275], [-45.98975, -14.65919], [-46.02098, -14.66335], [-46.02045, -14.64093], [-46.06543, -14.60977], [-46.10308, -14.61356], [-46.12362, -14.52836], [-46.18541, -14.48348], [-46.19609, -14.45536], [-46.27538, -14.4337], [-46.33499, -14.45819], [-46.31729, -14.52303], [-46.25276, -14.60342], [-46.19672, -14.6157], [-46.1619, -14.66495], [-46.02589, -14.67802], [-46.00189, -14.71126], [-46.00734, -14.79245], [-46.05229, -14.8311], [-46.03688, -14.87355], [-46.06234, -14.90799], [-46.07953, -14.90514], [-46.08814, -14.93639], [-46.10894, -14.93785], [-46.12043, -14.92019], [-46.14575, -14.92651], [-46.16292, -14.90619], [-46.17389, -14.94873], [-46.21756, -14.94342], [-46.23355, -14.92161], [-46.2816, -14.92937], [-46.30756, -14.91078], [-46.31817, -14.88326], [-46.30059, -14.85816], [-46.32492, -14.84779], [-46.3222, -14.8147], [-46.46314, -14.73117], [-46.4691, -14.7082], [-46.50133, -14.70313], [-46.51028, -14.73826], [-46.54402, -14.75288], [-46.56595, -14.79195], [-46.56016, -14.82072], [-46.5339, -14.82827], [-46.52156, -14.85118], [-46.54652, -14.92552], [-46.51729, -14.97286], [-46.53075, -15.00518], [-46.50361, -15.05343], [-46.57531, -15.08363], [-46.64101, -15.08759], [-46.72648, -15.03842], [-46.84434, -15.00908], [-46.92502, -15.05746], [-46.88832, -15.11254], [-46.94075, -15.23079], [-46.92773, -15.25498], [-46.89148, -15.23526], [-46.88941, -15.28205], [-46.83568, -15.32513], [-46.86939, -15.36125], [-46.84948, -15.37316], [-46.91192, -15.41155], [-46.93044, -15.44305], [-46.94908, -15.55464], [-46.91783, -15.58994], [-46.85488, -15.6183], [-46.85565, -15.68317], [-46.81315, -15.7872], [-46.82445, -15.81222], [-46.8055, -15.85939], [-46.81172, -15.88609], [-47.02047, -15.92884], [-47.08517, -15.96149], [-47.13457, -15.95019], [-47.13159, -15.93433], [-47.1415, -15.92725], [-47.21953, -16.01424], [-47.28574, -16.00866], [-47.31847, -16.03778], [-47.37724, -15.98637], [-47.36123, -15.92456], [-47.38078, -15.88121], [-47.36742, -15.82837], [-47.31265, -15.7403], [-47.33369, -15.63155], [-47.31562, -15.59502], [-47.41766, -15.54639], [-47.41756, -15.50034], [-47.56197, -15.50026], [-47.56997, -15.51348], [-47.61788, -15.50026], [-48.20052, -15.50061], [-48.19903, -15.62198], [-48.23492, -15.64263], [-48.24129, -15.68666], [-48.24105, -15.70555], [-48.21084, -15.71946], [-48.21321, -15.74803], [-48.24087, -15.79888], [-48.28509, -15.8368], [-48.27609, -15.93105], [-48.26106, -15.92806], [-48.25021, -15.9474], [-48.27781, -16.05018], [-47.30354, -16.06018], [-47.31135, -16.08813], [-47.33345, -16.08651], [-47.33776, -16.12848], [-47.35208, -16.13287], [-47.33196, -16.17174], [-47.33612, -16.20161], [-47.32212, -16.20878], [-47.328, -16.24922], [-47.36627, -16.3315], [-47.427, -16.39411], [-47.42952, -16.44266], [-47.45391, -16.46583], [-47.46004, -16.50498], [-47.44379, -16.54148], [-47.40507, -16.55649], [-47.41298, -16.57565], [-47.37738, -16.57951], [-47.37594, -16.60035], [-47.34284, -16.59236], [-47.33524, -16.61679], [-47.31854, -16.60356], [-47.32102, -16.61894], [-47.28651, -16.63406], [-47.2771, -16.65994], [-47.25016, -16.66682], [-47.25122, -16.70577], [-47.22165, -16.7263], [-47.23591, -16.75538], [-47.21723, -16.78007], [-47.22039, -16.80769], [-47.21192, -16.82873], [-47.19353, -16.82521], [-47.20923, -16.86558], [-47.19318, -16.88316], [-47.19747, -16.90993], [-47.18093, -16.90233], [-47.16007, -16.9206], [-47.17394, -16.9318], [-47.15693, -16.94142], [-47.16643, -16.95288], [-47.12593, -16.98177], [-47.15082, -16.99721], [-47.13112, -17.00817], [-47.14684, -17.03125], [-47.16151, -17.02937], [-47.16697, -17.04749], [-47.18444, -17.0361], [-47.18037, -17.06281], [-47.22973, -17.08965], [-47.2475, -17.08193], [-47.24818, -17.09856], [-47.28177, -17.11476], [-47.28271, -17.1441], [-47.35199, -17.16665], [-47.34018, -17.18739], [-47.36282, -17.18624], [-47.3499, -17.20233], [-47.36265, -17.22271], [-47.37554, -17.21688], [-47.38423, -17.24778], [-47.40783, -17.24597], [-47.43441, -17.27625], [-47.4192, -17.29545], [-47.42287, -17.32309], [-47.45473, -17.32987], [-47.44156, -17.34838], [-47.46529, -17.35585], [-47.50992, -17.33199], [-47.4995, -17.30234], [-47.52501, -17.27983], [-47.53084, -17.24272], [-47.5984, -17.167], [-47.64085, -17.14596], [-47.65698, -17.09305], [-47.71324, -17.05433], [-47.71976, -17.0333], [-47.68456, -16.94455], [-47.69075, -16.90237], [-47.73068, -16.92928], [-47.90281, -16.91559], [-47.91949, -17.00428], [-48.01595, -16.92927], [-48.07935, -16.92875], [-48.08091, -16.78651], [-48.10577, -16.76625], [-48.1053, -16.74841], [-48.19472, -16.735], [-48.19142, -16.64846], [-48.22916, -16.60235], [-48.26534, -16.49743], [-48.30583, -16.45315], [-48.34161, -16.44415], [-48.35876, -16.40162], [-48.40146, -16.38274], [-48.3982, -16.32364], [-48.37647, -16.30341], [-48.45666, -16.28516], [-48.48998, -16.29615], [-48.5175, -16.338], [-48.55063, -16.34628], [-48.61805, -16.31002], [-48.6314, -16.2828], [-48.76805, -16.29288], [-48.84837, -16.22697], [-48.89721, -16.23717], [-48.92253, -16.21924], [-48.94701, -16.24387], [-48.96118, -16.22754], [-48.92276, -16.16348], [-48.94215, -16.13126], [-48.98108, -16.12537], [-49.01983, -16.14251], [-49.05837, -16.12867], [-49.10428, -16.14612], [-49.1479, -16.12453], [-49.17271, -16.13398], [-49.18485, -16.11822], [-49.13218, -16.05248], [-49.15513, -16.02665], [-49.13252, -15.99848], [-49.18077, -15.95878], [-49.17473, -15.9401], [-49.19889, -15.92784], [-49.2175, -15.86002]], [[-48.61244, -16.14264], [-48.61385, -16.14302], [-48.61293, -16.14391], [-48.61244, -16.14264]]]}}, {"type": "Feature", "properties": {"mesorregiao": "Noroeste Goiano"}, "geometry": {"type": "Polygon", "coordinates": [[[-52.6932, -16.35114], [-52.68103, -16.30264], [-52.65707, -16.28017], [-52.62349, -16.28734], [-52.57642, -16.24995], [-52.5457, -16.26019], [-52.5697, -16.22885], [-52.54519, -16.22303], [-52.54861, -16.16512], [-52.52553, -16.14056], [-52.45846, -16.12746], [-52.40017, -16.09419], [-52.3751, -16.09837], [-52.32817, -16.07063], [-52.24751, -15.89019], [-52.00827, -15.88552], [-51.98328, -15.84398], [-51.95428, -15.83766], [-51.95164, -15.81195], [-51.87974, -15.82553], [-51.75858, -15.63797], [-51.77561, -15.53581], [-51.76185, -15.53165], [-51.75156, -15.55513], [-51.72785, -15.55084], [-51.73546, -15.51087], [-51.70009, -15.49072], [-51.69763, -15.40999], [-51.67139, -15.37164], [-51.68683, -15.30277], [-51.64695, -15.26792], [-51.66802, -15.24634], [-51.6521, -15.17987], [-51.5949, -15.15242], [-51.53254, -15.06557], [-51.4777, -15.05668], [-51.42217, -15.00593], [-51.37665, -15.01274], [-51.3338, -14.97126], [-51.30193, -14.98653], [-51.29055, -15.03427], [-51.24261, -15.03537], [-51.1508, -14.98375], [-51.13183, -14.94058], [-51.08353, -14.91625], [-51.08982, -14.84116], [-51.04299, -14.79141], [-51.05396, -14.74666], [-50.99182, -14.61386], [-50.99738, -14.5782], [-50.96289, -14.52714], [-50.99907, -14.41923], [-50.9693, -14.33386], [-50.97527, -14.29085], [-50.91337, -14.16975], [-50.91749, -14.11482], [-50.86913, -14.12566], [-50.83364, -14.08976], [-50.86559, -13.9802], [-50.84131, -13.9273], [-50.84062, -13.86587], [-50.85673, -13.83155], [-50.85385, -13.76573], [-50.87179, -13.73309], [-50.804, -13.691], [-50.76851, -13.59709], [-50.76345, -13.53], [-50.69696, -13.47591], [-50.68415, -13.44416], [-50.66535, -13.44211], [-50.66565, -13.37614], [-50.60721, -13.31082], [-50.58455, -13.21545], [-50.60339, -13.19687], [-50.5903, -13.10963], [-50.6117, -13.06436], [-50.56924, -13.03927], [-50.59301, -13.00286], [-50.55693, -13.00247], [-50.52593, -12.97634], [-50.50188, -12.88267], [-50.51107, -12.86077], [-50.485, -12.81172], [-50.49387, -12.78566], [-50.46851, -12.75519], [-50.48601, -12.74857], [-50.46626, -12.73153], [-50.47807, -12.70995], [-50.43533, -12.69425], [-50.428, -12.65292], [-50.44087, -12.65327], [-50.41334, -12.65011], [-50.41865, -12.6246], [-50.3912, -12.61175], [-50.39881, -12.60217], [-50.36655, -12.57145], [-50.36593, -12.54607], [-50.33148, -12.53542], [-50.33025, -12.51503], [-50.31407, -12.52136], [-50.32515, -12.5079], [-50.30784, -12.49438], [-50.18518, -12.43251], [-50.19437, -12.41225], [-50.1752, -12.42374], [-50.17142, -12.40695], [-50.14268, -12.39593], [-50.21767, -12.4889], [-50.22928, -12.53389], [-50.19318, -12.56431], [-50.22723, -12.58651], [-50.23823, -12.57966], [-50.23698, -12.62403], [-50.2623, -12.63754], [-50.26682, -12.68245], [-50.30003, -12.68089], [-50.28423, -12.71818], [-50.31126, -12.7986], [-50.29286, -12.83885], [-50.23154, -12.85416], [-50.22495, -12.87428], [-50.18398, -12.89608], [-50.0789, -12.90594], [-50.0442, -12.93357], [-50.00896, -12.93131], [-49.91149, -12.96677], [-49.36953, -13.27462], [-49.44231, -13.24641], [-49.48655, -13.2504], [-49.53125, -13.28057], [-49.57901, -13.28754], [-49.62439, -13.35373], [-49.64764, -13.35244], [-49.69884, -13.40924], [-49.76529, -13.42851], [-49.78366, -13.4552], [-49.81081, -13.4639], [-49.8227, -13.45307], [-49.85466, -13.4984], [-49.91398, -13.5078], [-50.00032, -13.48673], [-50.05946, -13.52452], [-50.11875, -13.50882], [-50.14276, -13.53697], [-50.16138, -13.53125], [-50.16815, -13.55342], [-50.22415, -13.53738], [-50.23282, -13.55726], [-50.25503, -13.54755], [-50.27549, -13.57776], [-50.24678, -13.57666], [-50.23957, -13.65406], [-50.21677, -13.65073], [-50.2151, -13.63482], [-50.20238, -13.65757], [-50.191, -13.64216], [-50.14968, -13.66059], [-50.14817, -13.64527], [-50.13598, -13.68072], [-50.11629, -13.68909], [-50.10709, -13.65894], [-50.05671, -13.70612], [-50.03239, -13.67989], [-49.98245, -13.68652], [-49.96476, -13.69752], [-49.96032, -13.74368], [-49.92284, -13.7563], [-49.92754, -13.79699], [-49.9575, -13.81695], [-49.9415, -13.83476], [-49.97406, -13.88627], [-49.94526, -13.91575], [-49.93678, -13.89585], [-49.95011, -13.90155], [-49.95262, -13.88532], [-49.87293, -13.89738], [-49.85564, -13.91542], [-49.84592, -13.89868], [-49.83231, -13.90784], [-49.81851, -13.94083], [-49.86682, -13.95759], [-49.85148, -13.97689], [-49.88176, -13.98631], [-49.87342, -14.04519], [-49.89628, -14.06861], [-49.8704, -14.07789], [-49.88082, -14.09918], [-49.86707, -14.11807], [-49.84656, -14.11507], [-49.8205, -14.14115], [-49.86119, -14.18316], [-49.84395, -14.1968], [-49.83553, -14.1831], [-49.83138, -14.20424], [-49.80782, -14.20898], [-49.82575, -14.23494], [-49.81463, -14.26584], [-49.80409, -14.26024], [-49.81, -14.29174], [-49.7805, -14.30322], [-49.79968, -14.32816], [-49.77373, -14.32652], [-49.78158, -14.38821], [-49.75636, -14.39227], [-49.76566, -14.41496], [-49.74145, -14.41107], [-49.73351, -14.44898], [-49.7105, -14.43982], [-49.69401, -14.466], [-49.71553, -14.46441], [-49.72581, -14.48482], [-49.77043, -14.47702], [-49.74865, -14.4996], [-49.75509, -14.53166], [-49.7712, -14.50707], [-49.77845, -14.54009], [-49.79894, -14.53412], [-49.82514, -14.56175], [-49.80703, -14.57824], [-49.82422, -14.59485], [-49.81243, -14.61966], [-49.78489, -14.61976], [-49.7771, -14.65455], [-49.75631, -14.6474], [-49.73156, -14.68945], [-49.78109, -14.76158], [-49.82477, -14.78167], [-49.81492, -14.79194], [-49.82984, -14.80498], [-49.85049, -14.90065], [-49.839, -14.9654], [-49.87995, -14.98794], [-49.92411, -14.97027], [-49.9658, -14.99992], [-49.96934, -15.0202], [-49.98784, -15.01489], [-50.04565, -15.05925], [-50.06103, -15.10679], [-50.03601, -15.1443], [-50.05556, -15.18294], [-50.04206, -15.20586], [-50.08654, -15.24816], [-50.10604, -15.28609], [-50.10185, -15.31455], [-50.13179, -15.33802], [-50.12465, -15.37074], [-50.16849, -15.45068], [-50.15334, -15.48715], [-50.16547, -15.52338], [-50.15305, -15.52569], [-50.15657, -15.5604], [-50.13143, -15.58007], [-50.12506, -15.65409], [-50.07688, -15.69051], [-50.06115, -15.7259], [-50.08137, -15.77703], [-50.0681, -15.78832], [-50.05164, -15.77355], [-50.02069, -15.78167], [-49.93862, -15.7491], [-49.91021, -15.77117], [-49.88504, -15.75335], [-49.80987, -15.82417], [-49.79609, -15.88471], [-49.81631, -15.90674], [-49.84042, -15.9066], [-49.83698, -15.9423], [-49.86717, -15.98844], [-49.94299, -15.9662], [-50.00534, -16.01271], [-50.08337, -16.04459], [-50.10765, -16.03515], [-50.25738, -16.09425], [-50.37388, -16.07632], [-50.46529, -16.1206], [-50.47973, -16.11755], [-50.47313, -16.07966], [-50.48965, -16.04079], [-50.51415, -16.03318], [-50.50631, -16.00867], [-50.58141, -16.04108], [-50.61821, -15.9652], [-50.68343, -15.95212], [-50.68418, -15.90988], [-50.72324, -15.87721], [-50.74649, -15.92274], [-50.79406, -15.94357], [-50.78265, -15.99337], [-50.81338, -16.02323], [-50.87204, -16.01102], [-50.88555, -16.04391], [-50.91424, -16.05374], [-50.94033, -16.02093], [-50.99429, -16.02708], [-51.06381, -15.96908], [-51.08108, -15.97954], [-51.15149, -15.95197], [-51.19577, -15.9656], [-51.21195, -15.94544], [-51.23438, -15.94539], [-51.25746, -15.96858], [-51.2388, -15.96326], [-51.23569, -15.99411], [-51.20666, -16.00361], [-51.21731, -16.02704], [-51.19255, -16.10656], [-51.17049, -16.12523], [-51.17091, -16.18966], [-51.1346, -16.22498], [-51.11241, -16.30685], [-51.3677, -16.28462], [-51.40578, -16.26859], [-51.43989, -16.34891], [-51.41211, -16.37194], [-51.39707, -16.44559], [-51.37506, -16.44397], [-51.37552, -16.46084], [-51.413, -16.47493], [-51.44463, -16.52239], [-51.50533, -16.53786], [-51.50653, -16.5801], [-51.57336, -16.65711], [-51.59529, -16.60456], [-51.63266, -16.59532], [-51.66902, -16.59915], [-51.6839, -16.62112], [-51.67447, -16.63654], [-51.70755, -16.64347], [-51.75284, -16.59893], [-51.86623, -16.659], [-51.89946, -16.63432], [-51.918, -16.65089], [-51.976, -16.62744], [-52.00359, -16.56774], [-52.04744, -16.54567], [-52.05211, -16.49148], [-52.12989, -16.46852], [-52.17078, -16.47796], [-52.17773, -16.4614], [-52.1968, -16.47036], [-52.25973, -16.59866], [-52.3273, -16.57436], [-52.33975, -16.54523], [-52.36434, -16.53623], [-52.40715, -16.55491], [-52.43472, -16.53671], [-52.49369, -16.5635], [-52.51117, -16.54059], [-52.54617, -16.55235], [-52.58082, -16.53638], [-52.56478, -16.51806], [-52.59124, -16.53511], [-52.61041, -16.51289], [-52.63522, -16.51261], [-52.63586, -16.50119], [-52.61133, -16.50058], [-52.60466, -16.46434], [-52.62073, -16.46485], [-52.61622, -16.45013], [-52.63856, -16.43708], [-52.64352, -16.4127], [-52.67665, -16.4123], [-52.6932, -16.35114]]]}}, {"type": "Feature", "properties": {"mesorregiao": "Norte Goiano"}, "geometry": {"type": "Polygon", "coordinates": [[[-50.27545, -13.57626], [-50.25501, -13.54736], [-50.23429, -13.55779], [-50.22351, -13.53684], [-50.16808, -13.55336], [-50.16128, -13.53111], [-50.14282, -13.53697], [-50.11901, -13.50857], [-50.05949, -13.52449], [-50.00042, -13.48664], [-49.91398, -13.50779], [-49.8546, -13.49822], [-49.82245, -13.45283], [-49.81086, -13.46379], [-49.78389, -13.45518], [-49.76561, -13.42818], [-49.69886, -13.40915], [-49.64828, -13.35218], [-49.62436, -13.35358], [-49.57928, -13.28745], [-49.53124, -13.28054], [-49.48448, -13.2501], [-49.44231, -13.2464], [-49.37175, -13.27664], [-49.33944, -13.25077], [-49.3544, -13.103], [-49.33747, -13.06629], [-49.2789, -12.98893], [-49.23741, -12.88408], [-49.19663, -12.8673], [-49.11908, -12.79036], [-49.1062, -12.83595], [-49.06752, -12.84734], [-49.08783, -12.88846], [-49.07885, -12.90342], [-49.02302, -12.90712], [-48.97521, -12.95617], [-48.87403, -12.80738], [-48.84677, -12.8098], [-48.84232, -12.84381], [-48.82094, -12.8443], [-48.81243, -12.86595], [-48.73658, -12.92103], [-48.73363, -12.98073], [-48.71788, -13.00214], [-48.67539, -12.99421], [-48.64027, -13.01395], [-48.6277, -13.05213], [-48.60141, -13.06088], [-48.59628, -13.10675], [-48.5771, -13.12567], [-48.59614, -13.15281], [-48.57794, -13.17415], [-48.57975, -13.2074], [-48.6003, -13.2388], [-48.58764, -13.25475], [-48.60053, -13.29518], [-48.58632, -13.31743], [-48.55365, -13.30191], [-48.55461, -13.20497], [-48.53073, -13.19247], [-48.50711, -13.12835], [-48.47363, -13.13741], [-48.47514, -13.2354], [-48.45711, -13.24869], [-48.46023, -13.28072], [-48.4415, -13.29215], [-48.42986, -13.27158], [-48.38545, -13.26553], [-48.36088, -13.24264], [-48.33769, -13.24711], [-48.34213, -13.2284], [-48.30742, -13.23533], [-48.28791, -13.20399], [-48.25076, -13.19689], [-48.23188, -13.16817], [-48.19578, -13.173], [-48.18882, -13.15366], [-48.14665, -13.15201], [-48.16576, -13.18997], [-48.15333, -13.21967], [-48.16892, -13.24006], [-48.15374, -13.27919], [-48.16527, -13.30574], [-48.08316, -13.28843], [-48.07913, -13.24295], [-48.06246, -13.2354], [-48.02414, -13.27917], [-47.9868, -13.27687], [-47.96659, -13.315], [-47.93588, -13.29072], [-47.88419, -13.3202], [-47.82122, -13.31261], [-47.67933, -13.46712], [-47.62306, -13.36819], [-47.65013, -13.35125], [-47.66221, -13.30385], [-47.6406, -13.26301], [-47.6689, -13.2094], [-47.65543, -13.178], [-47.66999, -13.1683], [-47.64449, -13.14959], [-47.63423, -13.10311], [-47.56252, -13.12263], [-47.5629, -13.18429], [-47.47889, -13.18514], [-47.48782, -13.21755], [-47.43576, -13.2271], [-47.43129, -13.23803], [-47.45502, -13.24937], [-47.42852, -13.2907], [-47.37311, -13.22856], [-47.35231, -13.24879], [-47.29454, -13.24893], [-47.28216, -13.26488], [-47.22823, -13.19432], [-47.18285, -13.18811], [-47.18411, -13.20403], [-47.15301, -13.20991], [-47.13434, -13.20119], [-47.13259, -13.1785], [-47.08733, -13.18227], [-47.08084, -13.16196], [-47.00991, -13.14086], [-47.00114, -13.12138], [-46.979, -13.13138], [-46.89292, -13.05323], [-46.85488, -13.06727], [-46.8197, -13.00247], [-46.75061, -12.96916], [-46.45481, -12.9711], [-46.43278, -12.93061], [-46.41762, -12.82346], [-46.40823, -12.84568], [-46.3662, -12.86485], [-46.3607, -12.90884], [-46.3769, -12.96331], [-46.36464, -12.9912], [-46.11164, -12.92559], [-46.12584, -12.96148], [-46.27328, -13.01492], [-46.29592, -13.06394], [-46.45104, -13.05508], [-46.50622, -13.09714], [-46.53076, -13.15401], [-46.5902, -13.21378], [-46.68242, -13.24319], [-46.67748, -13.28368], [-46.70231, -13.29682], [-46.70895, -13.32445], [-46.69906, -13.36891], [-46.73335, -13.38639], [-46.7692, -13.44641], [-46.76301, -13.48219], [-46.7848, -13.50837], [-46.77239, -13.54019], [-46.78866, -13.55095], [-46.79198, -13.59008], [-46.8402, -13.59082], [-46.85441, -13.62438], [-46.79632, -13.6584], [-46.80939, -13.67701], [-46.78392, -13.71782], [-46.81089, -13.72549], [-46.83751, -13.76441], [-46.81717, -13.79596], [-46.85179, -13.82862], [-46.8255, -13.84796], [-46.86787, -13.88654], [-46.83717, -13.91168], [-46.8508, -13.98643], [-46.82701, -14.03033], [-46.84481, -14.0485], [-46.87572, -14.03353], [-46.88909, -14.07057], [-46.92277, -14.07707], [-46.93804, -14.103], [-46.99619, -14.08154], [-47.05367, -14.10391], [-47.08423, -14.14234], [-47.08541, -14.17072], [-47.12931, -14.20067], [-47.139, -14.25436], [-47.17166, -14.26759], [-47.18909, -14.40302], [-47.18372, -14.43882], [-47.15723, -14.46626], [-47.14537, -14.53797], [-47.15998, -14.55108], [-47.18519, -14.54407], [-47.20443, -14.60743], [-47.22038, -14.60386], [-47.21579, -14.62686], [-47.23054, -14.63066], [-47.23615, -14.68915], [-47.28253, -14.69437], [-47.30782, -14.74948], [-47.31644, -14.73867], [-47.32236, -14.74991], [-47.31304, -14.76553], [-47.35673, -14.77562], [-47.37538, -14.81612], [-47.42252, -14.82921], [-47.4784, -14.81735], [-47.47346, -14.80266], [-47.52362, -14.77621], [-47.53407, -14.73817], [-47.55557, -14.73015], [-47.64635, -14.83096], [-47.63142, -14.74411], [-47.66013, -14.70656], [-47.69218, -14.7424], [-47.71737, -14.65264], [-47.77132, -14.64125], [-47.78633, -14.69029], [-47.81232, -14.69724], [-47.86506, -14.77252], [-47.90771, -14.79881], [-47.99352, -14.80413], [-48.06602, -14.86797], [-48.07875, -14.89873], [-48.04625, -14.92293], [-48.0356, -14.96091], [-48.05131, -14.96195], [-48.05822, -15.0524], [-48.0985, -15.11141], [-48.09121, -15.13575], [-48.11461, -15.15397], [-48.12914, -15.13654], [-48.18207, -15.141], [-48.2161, -15.11408], [-48.2369, -15.12819], [-48.30422, -15.09702], [-48.32313, -15.11278], [-48.3653, -15.09043], [-48.40641, -15.10565], [-48.42406, -15.08651], [-48.48896, -15.11746], [-48.49958, -15.15226], [-48.54267, -15.17411], [-48.61427, -15.15495], [-48.63053, -15.11031], [-48.65403, -15.10119], [-48.65694, -15.04571], [-48.59917, -15.00607], [-48.62055, -15.00419], [-48.61841, -14.98689], [-48.63486, -14.9972], [-48.65009, -14.95898], [-48.66819, -14.98256], [-48.69644, -14.9814], [-48.68367, -14.95223], [-48.74914, -14.93928], [-48.73679, -14.88273], [-48.76178, -14.84747], [-48.74552, -14.84305], [-48.74038, -14.81171], [-48.71324, -14.80112], [-48.72813, -14.77932], [-48.71218, -14.7645], [-48.71282, -14.72678], [-48.73163, -14.70931], [-48.72743, -14.67287], [-48.76431, -14.64349], [-48.78178, -14.66598], [-48.81519, -14.66372], [-48.84284, -14.68954], [-48.87594, -14.69453], [-48.90631, -14.671], [-48.95028, -14.68104], [-48.95052, -14.66134], [-48.9875, -14.64398], [-48.99006, -14.62225], [-48.97499, -14.62292], [-48.99169, -14.58651], [-49.00175, -14.59849], [-49.01126, -14.57605], [-49.03876, -14.57788], [-49.04473, -14.58867], [-49.016, -14.62095], [-49.04284, -14.60617], [-49.05404, -14.61709], [-49.0287, -14.63493], [-49.02106, -14.68802], [-48.9997, -14.7156], [-49.04199, -14.70871], [-49.06962, -14.74358], [-49.09115, -14.73049], [-49.12211, -14.74714], [-49.14358, -14.7338], [-49.16405, -14.77293], [-49.19305, -14.76869], [-49.20066, -14.74615], [-49.27526, -14.70822], [-49.28934, -14.67652], [-49.31733, -14.67333], [-49.32317, -14.63813], [-49.35586, -14.60876], [-49.39136, -14.63795], [-49.4215, -14.63089], [-49.4536, -14.56954], [-49.39273, -14.53429], [-49.38689, -14.50674], [-49.3557, -14.50514], [-49.40936, -14.42973], [-49.39785, -14.40184], [-49.42056, -14.38738], [-49.40032, -14.37389], [-49.42094, -14.32989], [-49.42658, -14.26031], [-49.45866, -14.29218], [-49.48177, -14.27379], [-49.48227, -14.23829], [-49.56029, -14.20048], [-49.56132, -14.2329], [-49.49706, -14.25519], [-49.47359, -14.46249], [-49.52289, -14.47529], [-49.54161, -14.46447], [-49.55434, -14.50289], [-49.53561, -14.5469], [-49.57521, -14.62671], [-49.56682, -14.64481], [-49.62487, -14.67656], [-49.62693, -14.63275], [-49.64414, -14.62826], [-49.63377, -14.57016], [-49.66198, -14.53192], [-49.66089, -14.48085], [-49.68672, -14.47903], [-49.71046, -14.43997], [-49.73348, -14.44903], [-49.73224, -14.41955], [-49.76501, -14.41561], [-49.75593, -14.39301], [-49.78164, -14.38839], [-49.774, -14.32648], [-49.80031, -14.32692], [-49.78081, -14.30348], [-49.81067, -14.29063], [-49.80411, -14.2603], [-49.8147, -14.26593], [-49.82578, -14.23482], [-49.80866, -14.20734], [-49.8314, -14.20435], [-49.83434, -14.18392], [-49.84414, -14.19683], [-49.86129, -14.18312], [-49.82059, -14.14128], [-49.84656, -14.11511], [-49.86715, -14.1181], [-49.88084, -14.09908], [-49.87041, -14.07802], [-49.89636, -14.06866], [-49.87345, -14.04529], [-49.88184, -13.98637], [-49.85149, -13.97688], [-49.86695, -13.95775], [-49.81868, -13.94095], [-49.83414, -13.90424], [-49.84817, -13.89977], [-49.85559, -13.91543], [-49.87303, -13.89742], [-49.95244, -13.88538], [-49.9502, -13.90142], [-49.93648, -13.89712], [-49.94847, -13.91567], [-49.97404, -13.88638], [-49.939, -13.82829], [-49.95601, -13.812], [-49.94202, -13.81395], [-49.92074, -13.77136], [-49.92477, -13.75418], [-49.96045, -13.74356], [-49.97124, -13.69035], [-50.03246, -13.68002], [-50.05787, -13.70587], [-50.10702, -13.65897], [-50.11634, -13.68926], [-50.13603, -13.6807], [-50.14838, -13.64528], [-50.14956, -13.66062], [-50.19097, -13.64218], [-50.20228, -13.65761], [-50.21472, -13.63495], [-50.21664, -13.65089], [-50.23962, -13.65405], [-50.24675, -13.5768], [-50.27545, -13.57626]], [[-49.57473, -13.76659], [-49.57489, -13.76762], [-49.57419, -13.76721], [-49.57473, -13.76659]]]}}, {"type": "Feature", "properties": {"mesorregiao": "Sul Goiano"}, "geometry": {"type": "Polygon", "coordinates": [[[-53.25121, -17.61908], [-53.23068, -17.42775], [-53.19721, -17.38033], [-53.21926, -17.29772], [-53.1753, -17.24074], [-53.15743, -17.17064], [-53.12841, -17.15457], [-53.11912, -17.11322], [-53.05619, -17.07065], [-53.06105, -17.04862], [-53.07254, -17.05059], [-53.05016, -16.99283], [-53.05515, -16.96344], [-53.03443, -16.94148], [-53.03962, -16.91196], [-53.01903, -16.89874], [-53.01133, -16.85801], [-52.96418, -16.86797], [-52.95723, -16.85079], [-52.94463, -16.85615], [-52.95298, -16.84192], [-52.92715, -16.84142], [-52.94443, -16.81316], [-52.93264, -16.80287], [-52.92102, -16.81721], [-52.88228, -16.77611], [-52.83222, -16.77228], [-52.8074, -16.74142], [-52.78624, -16.74123], [-52.78517, -16.7134], [-52.75997, -16.70339], [-52.75549, -16.67227], [-52.77126, -16.66851], [-52.74047, -16.6567], [-52.74687, -16.63071], [-52.71568, -16.63914], [-52.7402, -16.58906], [-52.70548, -16.59905], [-52.70356, -16.57056], [-52.67185, -16.58311], [-52.6739, -16.56906], [-52.6603, -16.5703], [-52.66862, -16.55051], [-52.65341, -16.56155], [-52.64701, -16.54591], [-52.63589, -16.55147], [-52.62943, -16.51777], [-52.61053, -16.51282], [-52.59136, -16.53507], [-52.56456, -16.51802], [-52.5807, -16.53611], [-52.5659, -16.54686], [-52.50862, -16.54115], [-52.4935, -16.56347], [-52.43481, -16.53662], [-52.40711, -16.55491], [-52.36428, -16.5362], [-52.33981, -16.54515], [-52.32728, -16.57409], [-52.2598, -16.5986], [-52.19578, -16.46798], [-52.17764, -16.46136], [-52.17074, -16.47788], [-52.12978, -16.4685], [-52.05206, -16.4915], [-52.04682, -16.54555], [-52.0035, -16.56774], [-51.97598, -16.62742], [-51.91796, -16.65078], [-51.8995, -16.63416], [-51.86632, -16.65884], [-51.75277, -16.59891], [-51.70868, -16.64308], [-51.68064, -16.63818], [-51.66908, -16.59907], [-51.63259, -16.59531], [-51.5953, -16.6045], [-51.57311, -16.65646], [-51.50673, -16.58006], [-51.5056, -16.53755], [-51.45616, -16.5289], [-51.41308, -16.47463], [-51.37049, -16.46569], [-51.34317, -16.47919], [-51.33742, -16.5093], [-51.30611, -16.51885], [-51.28764, -16.55428], [-51.30745, -16.56498], [-51.25666, -16.6167], [-51.26077, -16.64753], [-51.21985, -16.6976], [-51.22381, -16.81417], [-51.20561, -16.81053], [-51.19556, -16.8394], [-51.15252, -16.86759], [-51.14834, -16.89098], [-51.10397, -16.89454], [-51.0548, -16.95634], [-51.05685, -16.86038], [-51.008, -16.84785], [-50.97118, -16.79356], [-50.92417, -16.78346], [-50.84938, -16.72698], [-50.81891, -16.67101], [-50.81834, -16.72196], [-50.79041, -16.79649], [-50.79895, -16.82322], [-50.7054, -16.80955], [-50.65153, -16.83971], [-50.57662, -16.84784], [-50.53601, -16.81368], [-50.44927, -16.79708], [-50.40604, -16.71909], [-50.37726, -16.71782], [-50.36136, -16.69923], [-50.36, -16.74146], [-50.28511, -16.76689], [-50.28262, -16.80222], [-50.26203, -16.77944], [-50.25329, -16.73316], [-50.19423, -16.68585], [-50.15901, -16.68615], [-50.0056, -16.62013], [-49.97279, -16.5902], [-49.92786, -16.62802], [-49.91067, -16.61445], [-49.88651, -16.64014], [-49.77682, -16.63847], [-49.7457, -16.65271], [-49.72401, -16.63932], [-49.72782, -16.67011], [-49.68926, -16.66932], [-49.65356, -16.76036], [-49.61693, -16.77923], [-49.6374, -16.80025], [-49.59895, -16.8022], [-49.59714, -16.81439], [-49.61073, -16.84183], [-49.66532, -16.8753], [-49.71984, -16.88446], [-49.73667, -16.91206], [-49.72634, -16.93263], [-49.74867, -16.9464], [-49.59512, -16.95271], [-49.63416, -17.01053], [-49.60587, -17.0636], [-49.56856, -17.03545], [-49.54352, -17.04466], [-49.52031, -17.00051], [-49.47534, -16.98255], [-49.48888, -17.15979], [-49.46308, -17.16576], [-49.44481, -17.14234], [-49.42447, -17.15888], [-49.38709, -17.15641], [-49.23065, -17.08256], [-49.19201, -17.13714], [-49.17408, -17.12073], [-49.11132, -17.13591], [-49.12011, -17.09668], [-49.08356, -17.06114], [-49.05133, -17.05279], [-48.9819, -17.09269], [-48.93932, -17.08994], [-48.92544, -17.02329], [-48.88094, -17.01623], [-48.84397, -17.06448], [-48.79055, -17.19423], [-48.72334, -17.15854], [-48.64579, -17.18407], [-48.63975, -17.13102], [-48.68016, -17.12028], [-48.71526, -17.03961], [-48.77158, -17.01088], [-48.76944, -16.93713], [-48.80581, -16.91239], [-48.79102, -16.80704], [-48.83256, -16.79248], [-48.83446, -16.76336], [-48.85591, -16.75148], [-48.86865, -16.76783], [-48.88069, -16.74163], [-48.91743, -16.72433], [-48.87266, -16.65714], [-48.83127, -16.6576], [-48.79633, -16.62994], [-48.72389, -16.68612], [-48.71888, -16.6767], [-48.72704, -16.60469], [-48.78578, -16.5877], [-48.79552, -16.55881], [-48.86482, -16.48646], [-48.86325, -16.45157], [-48.90096, -16.41775], [-48.86885, -16.39493], [-48.85425, -16.40384], [-48.75575, -16.3823], [-48.75099, -16.33195], [-48.76961, -16.29127], [-48.71897, -16.28163], [-48.63128, -16.28271], [-48.61815, -16.30993], [-48.5505, -16.34595], [-48.5178, -16.33816], [-48.48991, -16.29582], [-48.45683, -16.28494], [-48.37647, -16.30321], [-48.39873, -16.32465], [-48.40069, -16.38467], [-48.35866, -16.40155], [-48.34153, -16.44418], [-48.3058, -16.45315], [-48.26656, -16.49567], [-48.22913, -16.60236], [-48.19141, -16.64846], [-48.19464, -16.73513], [-48.10522, -16.74831], [-48.08085, -16.7866], [-48.07838, -16.87961], [-48.08958, -16.89115], [-48.07901, -16.92889], [-48.01595, -16.92926], [-47.91997, -17.00467], [-47.90282, -16.9155], [-47.73071, -16.92927], [-47.6906, -16.90212], [-47.68455, -16.94448], [-47.71962, -17.03334], [-47.71309, -17.05437], [-47.65712, -17.09252], [-47.64106, -17.14541], [-47.59829, -17.16696], [-47.53077, -17.24259], [-47.5216, -17.28527], [-47.50066, -17.29528], [-47.50515, -17.34051], [-47.52158, -17.35274], [-47.51393, -17.37464], [-47.53868, -17.38916], [-47.52143, -17.42387], [-47.54081, -17.45417], [-47.5143, -17.46081], [-47.49553, -17.52636], [-47.47771, -17.51133], [-47.45707, -17.53837], [-47.39864, -17.51222], [-47.3242, -17.52822], [-47.26397, -17.62046], [-47.2813, -17.65302], [-47.27034, -17.67529], [-47.31346, -17.69902], [-47.31785, -17.72664], [-47.34251, -17.7444], [-47.33271, -17.76662], [-47.35444, -17.78762], [-47.35204, -17.81513], [-47.3729, -17.82996], [-47.34028, -17.93704], [-47.31385, -17.96322], [-47.31909, -17.99563], [-47.29685, -18.00939], [-47.28321, -18.05824], [-47.35772, -18.08514], [-47.35588, -18.10511], [-47.40707, -18.13168], [-47.39687, -18.14186], [-47.42862, -18.13942], [-47.43004, -18.16581], [-47.45118, -18.15919], [-47.48493, -18.19353], [-47.51559, -18.19639], [-47.53374, -18.23071], [-47.53625, -18.19489], [-47.56765, -18.20397], [-47.63854, -18.28731], [-47.61061, -18.31334], [-47.62619, -18.3343], [-47.64815, -18.3407], [-47.6575, -18.32779], [-47.70009, -18.37899], [-47.74023, -18.36373], [-47.73329, -18.3759], [-47.75709, -18.39653], [-47.74949, -18.41255], [-47.77902, -18.42413], [-47.812, -18.40095], [-47.83114, -18.41398], [-47.83457, -18.45126], [-47.8605, -18.44027], [-47.86818, -18.4744], [-47.9144, -18.46663], [-47.95691, -18.50021], [-47.97921, -18.47596], [-47.98077, -18.44308], [-48.00933, -18.45427], [-48.05588, -18.41324], [-48.07818, -18.43054], [-48.10935, -18.42912], [-48.1478, -18.40821], [-48.16145, -18.37223], [-48.22096, -18.36229], [-48.22698, -18.34511], [-48.2626, -18.33187], [-48.31494, -18.3642], [-48.30808, -18.38496], [-48.34955, -18.36639], [-48.40366, -18.37119], [-48.40975, -18.3554], [-48.44581, -18.35538], [-48.48124, -18.38014], [-48.48483, -18.35362], [-48.51566, -18.36641], [-48.55454, -18.34695], [-48.56149, -18.32393], [-48.69775, -18.35017], [-48.75759, -18.34474], [-48.81636, -18.37966], [-48.8371, -18.34153], [-48.93665, -18.3062], [-48.98397, -18.34161], [-48.996, -18.37094], [-49.03624, -18.3722], [-49.07703, -18.41678], [-49.1262, -18.38259], [-49.16131, -18.41694], [-49.21016, -18.41487], [-49.19411, -18.45243], [-49.22839, -18.47982], [-49.24936, -18.52351], [-49.28222, -18.53421], [-49.29409, -18.56525], [-49.32891, -18.56379], [-49.39156, -18.64661], [-49.41304, -18.64227], [-49.48183, -18.56103], [-49.49178, -18.4963], [-49.53382, -18.49252], [-49.55109, -18.54331], [-49.65167, -18.56112], [-49.63971, -18.60014], [-49.68209, -18.58885], [-49.73283, -18.61602], [-49.76585, -18.61023], [-49.79285, -18.64381], [-49.88007, -18.60957], [-49.93165, -18.62399], [-50.02004, -18.59937], [-50.08004, -18.67224], [-50.16426, -18.66436], [-50.2961, -18.69124], [-50.332, -18.72479], [-50.37858, -18.81465], [-50.42344, -18.8326], [-50.46102, -18.91364], [-50.51051, -18.93861], [-50.49874, -19.03401], [-50.53945, -19.10235], [-50.58502, -19.13738], [-50.67792, -19.13809], [-50.6778, -19.17251], [-50.74034, -19.19162], [-50.74764, -19.23851], [-50.82505, -19.29952], [-50.87597, -19.41509], [-50.82494, -19.47504], [-50.83861, -19.49862], [-50.93433, -19.4681], [-50.95088, -19.44342], [-50.9853, -19.43138], [-50.98521, -19.41035], [-51.03072, -19.40144], [-51.01827, -19.38385], [-51.08825, -19.30827], [-51.1805, -19.28353], [-51.20299, -19.26156], [-51.25222, -19.27408], [-51.30791, -19.23794], [-51.30786, -19.21857], [-51.36875, -19.22151], [-51.37512, -19.19468], [-51.39823, -19.19463], [-51.42058, -19.16653], [-51.49392, -19.16299], [-51.5018, -19.14786], [-51.57707, -19.12665], [-51.65795, -19.13792], [-51.71284, -19.10301], [-51.7287, -19.10823], [-51.74436, -19.08603], [-51.84132, -19.05714], [-51.84268, -19.04241], [-51.8544, -19.05184], [-51.93992, -18.96779], [-51.9782, -18.98081], [-51.99927, -18.96782], [-52.0156, -18.98278], [-52.01893, -18.96368], [-52.04535, -18.95062], [-52.08136, -18.95091], [-52.11158, -18.89947], [-52.15718, -18.88843], [-52.18667, -18.84612], [-52.33411, -18.82825], [-52.45519, -18.688], [-52.55274, -18.65699], [-52.59287, -18.68989], [-52.63368, -18.69556], [-52.68138, -18.67868], [-52.74748, -18.69202], [-52.91676, -18.64029], [-52.91436, -18.61978], [-52.93987, -18.61326], [-52.96235, -18.54082], [-52.88102, -18.46551], [-52.87329, -18.42679], [-52.79846, -18.4148], [-52.75934, -18.3481], [-52.80527, -18.31346], [-52.87321, -18.31483], [-52.93523, -18.29656], [-52.97913, -18.30474], [-53.02785, -18.3516], [-53.06994, -18.34288], [-53.09966, -18.31362], [-53.14324, -18.08184], [-53.12365, -18.05883], [-53.07576, -18.0508], [-53.07007, -17.98589], [-53.13144, -17.9169], [-53.13642, -17.83704], [-53.16878, -17.76625], [-53.23834, -17.71414], [-53.25121, -17.61908]], [[-53.2407, -17.57087], [-53.24193, -17.57044], [-53.24135, -17.5715], [-53.2407, -17.57087]]]}}], "crs": {"type": "name", "properties": {"name": "urn:ogc:def:crs:EPSG::4674"}}, "name": "malha_mesorregiao"}